*******************************************************************************
JPL/HORIZONS                 10 Hygiea (A849 GA)           2020-Jun-20 07:50:29
Rec #:      10 (+COV) Soln.date: 2020-May-20_00:55:48   # obs: 3547 (1849-2020)
 
IAU76/J2000 helio. ecliptic osc. elements (au, days, deg., period=Julian yrs):
 
  EPOCH=  2451620.5 ! 2000-Mar-17.00 (TDB)         Residual RMS= .20888
   EC= .1194570000753261   QR= 2.763525522161567   TP= 2451662.1579760485
   OM= 283.6598171322074   W=  314.3503224410856   IN= 3.842761750231485
   A= 3.138433355779301    MA= 352.6152997195167   ADIST= 3.513341189397035
   PER= 5.56004            N= .177269776           ANGMOM= .030256375
   DAN= 2.85522            DDN= 3.37552            L= 238.0746154
   B= -2.7468705           MOID= 1.75388002        TP= 2000-Apr-27.6579760485
 
Asteroid physical parameters (km, seconds, rotational period in hours):
   GM= 7.                  RAD= 203.56             ROTPER= 27.63
   H= 5.5                  G= .150                 B-V= .696
                           ALBEDO= .0717           STYP= C
 
ASTEROID comments: 
1: soln ref.= JPL#96, OCC=0
2: source=ORB
*******************************************************************************
 
 
*******************************************************************************
Ephemeris / WWW_USER Sat Jun 20 07:50:29 2020 Pasadena, USA      / Horizons
*******************************************************************************
Target body name: 10 Hygiea (A849 GA)             {source: JPL#96}
Center body name: Solar System Barycenter (0)     {source: DE431}
Center-site name: BODY CENTER
*******************************************************************************
Start time      : A.D. 1969-Jun-28 00:00:00.0000 TDB
Stop  time      : A.D. 2071-May-04 00:00:00.0000 TDB
Step-size       : 7200 minutes
*******************************************************************************
Center geodetic : 0.00000000,0.00000000,0.0000000 {E-lon(deg),Lat(deg),Alt(km)}
Center cylindric: 0.00000000,0.00000000,0.0000000 {E-lon(deg),Dxy(km),Dz(km)}
Center radii    : (undefined)                                                  
Small perturbers: Yes                             {source: SB431-N16}
Output units    : AU-D
Output type     : GEOMETRIC cartesian states
Output format   : 2 (position and velocity)
Reference frame : Ecliptic of J2000.0
*******************************************************************************
Initial IAU76/J2000 heliocentric ecliptic osculating elements (au, days, deg.):
  EPOCH=  2451620.5 ! 2000-Mar-17.00 (TDB)         Residual RMS= .20888        
   EC= .1194570000753261   QR= 2.763525522161567   TP= 2451662.1579760485      
   OM= 283.6598171322074   W=  314.3503224410856   IN= 3.842761750231485       
  Equivalent ICRF heliocentric equatorial cartesian coordinates (au, au/d):
   X=-1.826575162516548E+00  Y=-1.841960632939036E+00  Z=-9.643807590534613E-01
  VX= 8.308933031589055E-03 VY=-6.680295000250986E-03 VZ=-2.427827948718534E-03
Asteroid physical parameters (km, seconds, rotational period in hours):        
   GM= 7.                  RAD= 203.56             ROTPER= 27.63               
   H= 5.5                  G= .150                 B-V= .696                   
                           ALBEDO= .0717           STYP= C                     
*******************************************************************************
            JDTDB,            Calendar Date (TDB),        delta-T,                      X,                      Y,                      Z,                     VX,                     VY,                     VZ,
******************************************************************************************************************************************************************************************************************
$$SOE
2440960.500000000, A.D. 1971-Jan-09 00:00:00.0000,      41.151067, -1.987539962291419E+00,  2.587171293205778E+00, -8.736521824159313E-02, -6.722475569138501E-03, -6.455742550085748E-03, -5.433928357926130E-04,
2440965.500000000, A.D. 1971-Jan-14 00:00:00.0000,      41.164170, -2.020938836706357E+00,  2.554618105722773E+00, -9.007277094278568E-02, -6.636770622846198E-03, -6.565385185384797E-03, -5.396060543840091E-04,
2440970.500000000, A.D. 1971-Jan-19 00:00:00.0000,      41.177270, -2.053904632848871E+00,  2.521518938744328E+00, -9.276105648018365E-02, -6.549244287115667E-03, -6.674129372236185E-03, -5.356858904690090E-04,
2440975.500000000, A.D. 1971-Jan-24 00:00:00.0000,      41.190369, -2.086428244509177E+00,  2.487878359478338E+00, -9.542940676051007E-02, -6.459896924091118E-03, -6.781945059315704E-03, -5.316318750528643E-04,
2440980.500000000, A.D. 1971-Jan-29 00:00:00.0000,      41.203465, -2.118500568309512E+00,  2.453701086365327E+00, -9.807715139594275E-02, -6.368729307160051E-03, -6.888801804891995E-03, -5.274435594890863E-04,
2440985.500000000, A.D. 1971-Feb-03 00:00:00.0000,      41.216553, -2.150112505801409E+00,  2.418991991030223E+00, -1.007036178085348E-01, -6.275742637422086E-03, -6.994668776994827E-03, -5.231205165567090E-04,
2440990.500000000, A.D. 1971-Feb-08 00:00:00.0000,      41.229634, -2.181254965646036E+00,  2.383756100232266E+00, -1.033081313401042E-01, -6.180938560449612E-03, -7.099514754010248E-03, -5.186623415698344E-04,
2440995.500000000, A.D. 1971-Feb-13 00:00:00.0000,      41.242706, -2.211918865879114E+00,  2.347998597810718E+00, -1.058900153677419E-01, -6.084319183367116E-03, -7.203308125766282E-03, -5.140686535161753E-04,
2441000.500000000, A.D. 1971-Feb-18 00:00:00.0000,      41.255771, -2.242095136262100E+00,  2.311724826623867E+00, -1.084485914250888E-01, -5.985887092278409E-03, -7.306016895134924E-03, -5.093390962242977E-04,
2441005.500000000, A.D. 1971-Feb-23 00:00:00.0000,      41.268828, -2.271774720721413E+00,  2.274940290478700E+00, -1.109831793295163E-01, -5.885645370061970E-03, -7.407608680164573E-03, -5.044733395597793E-04,
2441010.500000000, A.D. 1971-Feb-28 00:00:00.0000,      41.281876, -2.300948579877580E+00,  2.237650656048577E+00, -1.134930973153625E-01, -5.783597614542983E-03, -7.508050716747263E-03, -4.994710806510925E-04,
2441015.500000000, A.D. 1971-Mar-05 00:00:00.0000,      41.294912, -2.329607693666171E+00,  2.199861754776219E+00, -1.159776621733769E-01, -5.679747957031528E-03, -7.607309861826308E-03, -4.943320451455515E-04,
2441020.500000000, A.D. 1971-Mar-10 00:00:00.0000,      41.307936, -2.357743064052284E+00,  2.161579584759279E+00, -1.184361893965130E-01, -5.574101081203509E-03, -7.705352597162505E-03, -4.890559884942578E-04,
2441025.500000000, A.D. 1971-Mar-15 00:00:00.0000,      41.320948, -2.385345717840239E+00,  2.122810312615604E+00, -1.208679933322173E-01, -5.466662242296564E-03, -7.802145033696473E-03, -4.836426972633284E-04,
2441030.500000000, A.D. 1971-Mar-20 00:00:00.0000,      41.333949, -2.412406709580035E+00,  2.083560275325088E+00, -1.232723873413319E-01, -5.357437286625365E-03, -7.897652916559158E-03, -4.780919904711192E-04,
2441035.500000000, A.D. 1971-Mar-25 00:00:00.0000,      41.346939, -2.438917124572341E+00,  2.043835982044831E+00, -1.256486839637827E-01, -5.246432671509904E-03, -7.991841630729423E-03, -4.724037209675290E-04,
2441040.500000000, A.D. 1971-Mar-30 00:00:00.0000,      41.359918, -2.464868081974420E+00,  2.003644115894681E+00, -1.279961950913387E-01, -5.133655485706550E-03, -8.084676207182281E-03, -4.665777768900367E-04,
2441045.500000000, A.D. 1971-Apr-04 00:00:00.0000,      41.372883, -2.490250738008985E+00,  1.962991535711108E+00, -1.303142321478384E-01, -5.019113470070130E-03, -8.176121329431844E-03, -4.606140831825191E-04,
2441050.500000000, A.D. 1971-Apr-09 00:00:00.0000,      41.385835, -2.515056289275902E+00,  1.921885277766641E+00, -1.326021062769686E-01, -4.902815037998621E-03, -8.266141340855824E-03, -4.545126030818734E-04,
2441055.500000000, A.D. 1971-Apr-14 00:00:00.0000,      41.398774, -2.539275976165871E+00,  1.880332557449774E+00, -1.348591285373208E-01, -4.784769295860566E-03, -8.354700253204374E-03, -4.482733395524207E-04,
2441060.500000000, A.D. 1971-Apr-19 00:00:00.0000,      41.411702, -2.562901086377280E+00,  1.838340770899710E+00, -1.370846101046774E-01, -4.664986063892819E-03, -8.441761756082489E-03, -4.418963367587470E-04,
2441065.500000000, A.D. 1971-Apr-24 00:00:00.0000,      41.424620, -2.585922958538807E+00,  1.795917496591983E+00, -1.392778624818638E-01, -4.543475897556853E-03, -8.527289227097806E-03, -4.353816816168593E-04,
2441070.500000000, A.D. 1971-Apr-29 00:00:00.0000,      41.437526, -2.608332985939416E+00,  1.753070496871685E+00, -1.414381977164915E-01, -4.420250109109477E-03, -8.611245742687311E-03, -4.287295053945013E-04,
2441075.500000000, A.D. 1971-May-04 00:00:00.0000,      41.450421, -2.630122620366441E+00,  1.709807719430560E+00, -1.435649286267625E-01, -4.295320789257458E-03, -8.693594089770568E-03, -4.219399853311465E-04,
2441080.500000000, A.D. 1971-May-09 00:00:00.0000,      41.463304, -2.651283376052121E+00,  1.666137298723567E+00, -1.456573690354053E-01, -4.168700828882757E-03, -8.774296778316544E-03, -4.150133462709206E-04,
2441085.500000000, A.D. 1971-May-14 00:00:00.0000,      41.476177, -2.671806833728941E+00,  1.622067557320214E+00, -1.477148340118072E-01, -4.040403940839485E-03, -8.853316054869598E-03, -4.079498623091101E-04,
2441090.500000000, A.D. 1971-May-19 00:00:00.0000,      41.489041, -2.691684644794117E+00,  1.577607007185849E+00, -1.497366401224199E-01, -3.910444681814852E-03, -8.930613917050141E-03, -4.007498584546198E-04,
2441095.500000000, A.D. 1971-May-24 00:00:00.0000,      41.501899, -2.710908535583511E+00,  1.532764350887958E+00, -1.517221056895187E-01, -3.778838474231773E-03, -9.006152129048421E-03, -3.934137123087830E-04,
